{"type": "FeatureCollection", "features": [{"type": "Feature", "properties": {"code_muni": 1100015, "name_muni": "Alta Floresta d'Oeste"}, "geometry": {"type": "Polygon", "coordinates": [[[-62.1498238963, -12.0855403048], [-61.8498238963, -12.0855403048], [-61.8498238963, -11.7855403048], [-62.1498238963, -11.7855403048], [-62.1498238963, -12.0855403048]]]}}, {"type": "Feature", "properties": {"code_muni": 1100023, "name_muni": "Ariquemes"}, "geometry": {"type": "Polygon", "coordinates": [[[-63.183269278, -10.058462866600001], [-62.883269278, -10.058462866600001], [-62.883269278, -9.7584628666], [-63.183269278, -9.7584628666], [-63.183269278, -10.058462866600001]]]}}, {"type": "Feature", "properties": {"code_muni": 1100031, "name_muni": "Cabixi"}, "geometry": {"type": "Polygon", "coordinates": [[[-60.6943135812, -13.6497634597], [-60.3943135812, -13.6497634597], [-60.3943135812, -13.3497634597], [-60.6943135812, -13.3497634597], [-60.6943135812, -13.6497634597]]]}}, {"type": "Feature", "properties": {"code_muni": 1100049, "name_muni": "Cacoal"}, "geometry": {"type": "Polygon", "coordinates": [[[-61.592944211799995, -11.5838650287], [-61.2929442118, -11.5838650287], [-61.2929442118, -11.2838650287], [-61.592944211799995, -11.2838650287], [-61.592944211799995, -11.5838650287]]]}}, {"type": "Feature", "properties": {"code_muni": 1100056, "name_muni": "Cerejeiras"}, "geometry": {"type": "Polygon", "coordinates": [[[-60.9684261647, -13.345033032], [-60.6684261647, -13.345033032], [-60.6684261647, -13.045033032], [-60.9684261647, -13.045033032], [-60.9684261647, -13.345033032]]]}}, {"type": "Feature", "properties": {"code_muni": 1100064, "name_muni": "Colorado do Oeste"}, "geometry": {"type": "Polygon", "coordinates": [[[-60.7050674631, -13.280563841500001], [-60.4050674631, -13.280563841500001], [-60.4050674631, -12.9805638415], [-60.7050674631, -12.9805638415], [-60.7050674631, -13.280563841500001]]]}}, {"type": "Feature", "properties": {"code_muni": 1100072, "name_muni": "Corumbiara"}, "geometry": {"type": "Polygon", "coordinates": [[[-61.0987011707, -13.1475202365], [-60.7987011707, -13.1475202365], [-60.7987011707, -12.8475202365], [-61.0987011707, -12.8475202365], [-61.0987011707, -13.1475202365]]]}}, {"type": "Feature", "properties": {"code_muni": 1100080, "name_muni": "Costa Marques"}, "geometry": {"type": "Polygon", "coordinates": [[[-64.3816539391, -12.586013877700001], [-64.0816539391, -12.586013877700001], [-64.0816539391, -12.2860138777], [-64.3816539391, -12.2860138777], [-64.3816539391, -12.586013877700001]]]}}, {"type": "Feature", "properties": {"code_muni": 1100098, "name_muni": "Espig\u00e3o d'Oeste"}, "geometry": {"type": "Polygon", "coordinates": [[[-61.170173113299995, -11.678554633300001], [-60.8701731133, -11.678554633300001], [-60.8701731133, -11.3785546333], [-61.170173113299995, -11.3785546333], [-61.170173113299995, -11.678554633300001]]]}}, {"type": "Feature", "properties": {"code_muni": 1100106, "name_muni": "Guajar\u00e1-Mirim"}, "geometry": {"type": "Polygon", "coordinates": [[[-65.4739518197, -10.923883740700001], [-65.1739518197, -10.923883740700001], [-65.1739518197, -10.6238837407], [-65.4739518197, -10.6238837407], [-65.4739518197, -10.923883740700001]]]}}, {"type": "Feature", "properties": {"code_muni": 1100114, "name_muni": "Jaru"}, "geometry": {"type": "Polygon", "coordinates": [[[-62.626230708099996, -10.5859487679], [-62.3262307081, -10.5859487679], [-62.3262307081, -10.285948767899999], [-62.626230708099996, -10.285948767899999], [-62.626230708099996, -10.5859487679]]]}}, {"type": "Feature", "properties": {"code_muni": 1100122, "name_muni": "Ji-Paran\u00e1"}, "geometry": {"type": "Polygon", "coordinates": [[[-62.0950945827, -11.0320513183], [-61.7950945827, -11.0320513183], [-61.7950945827, -10.7320513183], [-62.0950945827, -10.7320513183], [-62.0950945827, -11.0320513183]]]}}, {"type": "Feature", "properties": {"code_muni": 1100130, "name_muni": "Machadinho d'Oeste"}, "geometry": {"type": "Polygon", "coordinates": [[[-62.149592572399996, -9.57556248], [-61.8495925724, -9.57556248], [-61.8495925724, -9.27556248], [-62.149592572399996, -9.27556248], [-62.149592572399996, -9.57556248]]]}}, {"type": "Feature", "properties": {"code_muni": 1100148, "name_muni": "Nova Brasil\u00e2ndia d'Oeste"}, "geometry": {"type": "Polygon", "coordinates": [[[-62.458230162999996, -11.871325413900001], [-62.158230163, -11.871325413900001], [-62.158230163, -11.5713254139], [-62.458230162999996, -11.5713254139], [-62.458230162999996, -11.871325413900001]]]}}, {"type": "Feature", "properties": {"code_muni": 1100155, "name_muni": "Ouro Preto do Oeste"}, "geometry": {"type": "Polygon", "coordinates": [[[-62.4110551904, -10.8735739008], [-62.1110551904, -10.8735739008], [-62.1110551904, -10.5735739008], [-62.4110551904, -10.5735739008], [-62.4110551904, -10.8735739008]]]}}, {"type": "Feature", "properties": {"code_muni": 1100189, "name_muni": "Pimenta Bueno"}, "geometry": {"type": "Polygon", "coordinates": [[[-61.333665673599995, -11.82753699], [-61.0336656736, -11.82753699], [-61.0336656736, -11.52753699], [-61.333665673599995, -11.52753699], [-61.333665673599995, -11.82753699]]]}}, {"type": "Feature", "properties": {"code_muni": 1100205, "name_muni": "Porto Velho"}, "geometry": {"type": "Polygon", "coordinates": [[[-63.9814456544, -8.91889179], [-63.6814456544, -8.91889179], [-63.6814456544, -8.61889179], [-63.9814456544, -8.61889179], [-63.9814456544, -8.91889179]]]}}, {"type": "Feature", "properties": {"code_muni": 1100254, "name_muni": "Presidente M\u00e9dici"}, "geometry": {"type": "Polygon", "coordinates": [[[-62.0594386835, -11.323205016200001], [-61.7594386835, -11.323205016200001], [-61.7594386835, -11.0232050162], [-62.0594386835, -11.0232050162], [-62.0594386835, -11.323205016200001]]]}}, {"type": "Feature", "properties": {"code_muni": 1100262, "name_muni": "Rio Crespo"}, "geometry": {"type": "Polygon", "coordinates": [[[-63.050010365999995, -9.8555367097], [-62.750010366, -9.8555367097], [-62.750010366, -9.5555367097], [-63.050010365999995, -9.5555367097], [-63.050010365999995, -9.8555367097]]]}}, {"type": "Feature", "properties": {"code_muni": 1100288, "name_muni": "Rolim de Moura"}, "geometry": {"type": "Polygon", "coordinates": [[[-61.9357809352, -11.8722589134], [-61.6357809352, -11.8722589134], [-61.6357809352, -11.572258913399999], [-61.9357809352, -11.572258913399999], [-61.9357809352, -11.8722589134]]]}}, {"type": "Feature", "properties": {"code_muni": 1100296, "name_muni": "Santa Luzia d'Oeste"}, "geometry": {"type": "Polygon", "coordinates": [[[-61.9233054631, -12.0584233325], [-61.6233054631, -12.0584233325], [-61.6233054631, -11.7584233325], [-61.9233054631, -11.7584233325], [-61.9233054631, -12.0584233325]]]}}, {"type": "Feature", "properties": {"code_muni": 1100304, "name_muni": "Vilhena"}, "geometry": {"type": "Polygon", "coordinates": [[[-60.2885838661, -12.8913734718], [-59.9885838661, -12.8913734718], [-59.9885838661, -12.591373471799999], [-60.2885838661, -12.591373471799999], [-60.2885838661, -12.8913734718]]]}}, {"type": "Feature", "properties": {"code_muni": 1100320, "name_muni": "S\u00e3o Miguel do Guapor\u00e9"}, "geometry": {"type": "Polygon", "coordinates": [[[-62.870063481399995, -11.8494897438], [-62.5700634814, -11.8494897438], [-62.5700634814, -11.549489743799999], [-62.870063481399995, -11.549489743799999], [-62.870063481399995, -11.8494897438]]]}}, {"type": "Feature", "properties": {"code_muni": 1100338, "name_muni": "Nova Mamor\u00e9"}, "geometry": {"type": "Polygon", "coordinates": [[[-65.4791490231, -10.5617712947], [-65.1791490231, -10.5617712947], [-65.1791490231, -10.261771294699999], [-65.4791490231, -10.261771294699999], [-65.4791490231, -10.5617712947]]]}}, {"type": "Feature", "properties": {"code_muni": 1100346, "name_muni": "Alvorada d'Oeste"}, "geometry": {"type": "Polygon", "coordinates": [[[-62.4272748657, -11.4941300234], [-62.1272748657, -11.4941300234], [-62.1272748657, -11.1941300234], [-62.4272748657, -11.1941300234], [-62.4272748657, -11.4941300234]]]}}, {"type": "Feature", "properties": {"code_muni": 1100379, "name_muni": "Alto Alegre dos Parecis"}, "geometry": {"type": "Polygon", "coordinates": [[[-62.0030771686, -12.2817772246], [-61.703077168600004, -12.2817772246], [-61.703077168600004, -11.9817772246], [-62.0030771686, -11.9817772246], [-62.0030771686, -12.2817772246]]]}}, {"type": "Feature", "properties": {"code_muni": 1100403, "name_muni": "Alto Para\u00edso"}, "geometry": {"type": "Polygon", "coordinates": [[[-63.4676294335, -9.866666738100001], [-63.167629433500004, -9.866666738100001], [-63.167629433500004, -9.5666667381], [-63.4676294335, -9.5666667381], [-63.4676294335, -9.866666738100001]]]}}, {"type": "Feature", "properties": {"code_muni": 1100452, "name_muni": "Buritis"}, "geometry": {"type": "Polygon", "coordinates": [[[-63.9796787918, -10.3598054072], [-63.6796787918, -10.3598054072], [-63.6796787918, -10.059805407199999], [-63.9796787918, -10.059805407199999], [-63.9796787918, -10.3598054072]]]}}, {"type": "Feature", "properties": {"code_muni": 1100502, "name_muni": "Novo Horizonte do Oeste"}, "geometry": {"type": "Polygon", "coordinates": [[[-62.1443876628, -11.85974292], [-61.8443876628, -11.85974292], [-61.8443876628, -11.55974292], [-62.1443876628, -11.55974292], [-62.1443876628, -11.85974292]]]}}, {"type": "Feature", "properties": {"code_muni": 1100601, "name_muni": "Cacaul\u00e2ndia"}, "geometry": {"type": "Polygon", "coordinates": [[[-63.0531899346, -10.4888728394], [-62.7531899346, -10.4888728394], [-62.7531899346, -10.1888728394], [-63.0531899346, -10.1888728394], [-63.0531899346, -10.4888728394]]]}}, {"type": "Feature", "properties": {"code_muni": 1100700, "name_muni": "Campo Novo de Rond\u00f4nia"}, "geometry": {"type": "Polygon", "coordinates": [[[-63.7749914265, -10.718416469300001], [-63.474991426500004, -10.718416469300001], [-63.474991426500004, -10.4184164693], [-63.7749914265, -10.4184164693], [-63.7749914265, -10.718416469300001]]]}}, {"type": "Feature", "properties": {"code_muni": 1100809, "name_muni": "Candeias do Jamari"}, "geometry": {"type": "Polygon", "coordinates": [[[-63.850020071799996, -8.935020703500001], [-63.5500200718, -8.935020703500001], [-63.5500200718, -8.6350207035], [-63.850020071799996, -8.6350207035], [-63.850020071799996, -8.935020703500001]]]}}, {"type": "Feature", "properties": {"code_muni": 1100908, "name_muni": "Castanheiras"}, "geometry": {"type": "Polygon", "coordinates": [[[-62.0991611965, -11.5768422255], [-61.7991611965, -11.5768422255], [-61.7991611965, -11.2768422255], [-62.0991611965, -11.2768422255], [-62.0991611965, -11.5768422255]]]}}, {"type": "Feature", "properties": {"code_muni": 1100924, "name_muni": "Chupinguaia"}, "geometry": {"type": "Polygon", "coordinates": [[[-61.05184775, -12.7068407611], [-60.75184775, -12.7068407611], [-60.75184775, -12.4068407611], [-61.05184775, -12.4068407611], [-61.05184775, -12.7068407611]]]}}, {"type": "Feature", "properties": {"code_muni": 1100940, "name_muni": "Cujubim"}, "geometry": {"type": "Polygon", "coordinates": [[[-62.737174531899996, -9.528193399100001], [-62.4371745319, -9.528193399100001], [-62.4371745319, -9.2281933991], [-62.737174531899996, -9.2281933991], [-62.737174531899996, -9.528193399100001]]]}}, {"type": "Feature", "properties": {"code_muni": 1101005, "name_muni": "Governador Jorge Teixeira"}, "geometry": {"type": "Polygon", "coordinates": [[[-62.8904576395, -10.7620717726], [-62.5904576395, -10.7620717726], [-62.5904576395, -10.4620717726], [-62.8904576395, -10.4620717726], [-62.8904576395, -10.7620717726]]]}}, {"type": "Feature", "properties": {"code_muni": 1101104, "name_muni": "Itapu\u00e3 do Oeste"}, "geometry": {"type": "Polygon", "coordinates": [[[-63.3323370165, -9.3418716753], [-63.0323370165, -9.3418716753], [-63.0323370165, -9.0418716753], [-63.3323370165, -9.0418716753], [-63.3323370165, -9.3418716753]]]}}, {"type": "Feature", "properties": {"code_muni": 1101203, "name_muni": "Ministro Andreazza"}, "geometry": {"type": "Polygon", "coordinates": [[[-61.6689219301, -11.3462379842], [-61.3689219301, -11.3462379842], [-61.3689219301, -11.0462379842], [-61.6689219301, -11.0462379842], [-61.6689219301, -11.3462379842]]]}}, {"type": "Feature", "properties": {"code_muni": 1101302, "name_muni": "Mirante da Serra"}, "geometry": {"type": "Polygon", "coordinates": [[[-62.8194270953, -11.1956092899], [-62.5194270953, -11.1956092899], [-62.5194270953, -10.8956092899], [-62.8194270953, -10.8956092899], [-62.8194270953, -11.1956092899]]]}}, {"type": "Feature", "properties": {"code_muni": 1101401, "name_muni": "Monte Negro"}, "geometry": {"type": "Polygon", "coordinates": [[[-63.445559167199995, -10.4130977559], [-63.1455591672, -10.4130977559], [-63.1455591672, -10.1130977559], [-63.445559167199995, -10.1130977559], [-63.445559167199995, -10.4130977559]]]}}, {"type": "Feature", "properties": {"code_muni": 1101435, "name_muni": "Nova Uni\u00e3o"}, "geometry": {"type": "Polygon", "coordinates": [[[-62.7050893989, -11.065532041700001], [-62.4050893989, -11.065532041700001], [-62.4050893989, -10.7655320417], [-62.7050893989, -10.7655320417], [-62.7050893989, -11.065532041700001]]]}}, {"type": "Feature", "properties": {"code_muni": 1101450, "name_muni": "Parecis"}, "geometry": {"type": "Polygon", "coordinates": [[[-61.7479979727, -12.3298270507], [-61.4479979727, -12.3298270507], [-61.4479979727, -12.0298270507], [-61.7479979727, -12.0298270507], [-61.7479979727, -12.3298270507]]]}}, {"type": "Feature", "properties": {"code_muni": 1101468, "name_muni": "Pimenteiras do Oeste"}, "geometry": {"type": "Polygon", "coordinates": [[[-61.1943790025, -13.6265620025], [-60.8943790025, -13.6265620025], [-60.8943790025, -13.3265620025], [-61.1943790025, -13.3265620025], [-61.1943790025, -13.6265620025]]]}}, {"type": "Feature", "properties": {"code_muni": 1101476, "name_muni": "Primavera de Rond\u00f4nia"}, "geometry": {"type": "Polygon", "coordinates": [[[-61.4665462429, -11.9757069542], [-61.166546242900004, -11.9757069542], [-61.166546242900004, -11.675706954199999], [-61.4665462429, -11.675706954199999], [-61.4665462429, -11.9757069542]]]}}, {"type": "Feature", "properties": {"code_muni": 1101484, "name_muni": "S\u00e3o Felipe d'Oeste"}, "geometry": {"type": "Polygon", "coordinates": [[[-61.6625081133, -12.064389354700001], [-61.3625081133, -12.064389354700001], [-61.3625081133, -11.7643893547], [-61.6625081133, -11.7643893547], [-61.6625081133, -12.064389354700001]]]}}, {"type": "Feature", "properties": {"code_muni": 1101492, "name_muni": "S\u00e3o Francisco do Guapor\u00e9"}, "geometry": {"type": "Polygon", "coordinates": [[[-63.7208647108, -12.213798412200001], [-63.420864710800004, -12.213798412200001], [-63.420864710800004, -11.9137984122], [-63.7208647108, -11.9137984122], [-63.7208647108, -12.213798412200001]]]}}, {"type": "Feature", "properties": {"code_muni": 1101500, "name_muni": "Seringueiras"}, "geometry": {"type": "Polygon", "coordinates": [[[-63.1887609977, -11.917116635600001], [-62.888760997700004, -11.917116635600001], [-62.888760997700004, -11.6171166356], [-63.1887609977, -11.6171166356], [-63.1887609977, -11.917116635600001]]]}}, {"type": "Feature", "properties": {"code_muni": 1101559, "name_muni": "Teixeir\u00f3polis"}, "geometry": {"type": "Polygon", "coordinates": [[[-62.405922254, -11.082169286000001], [-62.105922254, -11.082169286000001], [-62.105922254, -10.782169286], [-62.405922254, -10.782169286], [-62.405922254, -11.082169286000001]]]}}, {"type": "Feature", "properties": {"code_muni": 1101609, "name_muni": "Theobroma"}, "geometry": {"type": "Polygon", "coordinates": [[[-62.4951455299, -10.398730552], [-62.1951455299, -10.398730552], [-62.1951455299, -10.098730552], [-62.4951455299, -10.098730552], [-62.4951455299, -10.398730552]]]}}, {"type": "Feature", "properties": {"code_muni": 1101708, "name_muni": "Urup\u00e1"}, "geometry": {"type": "Polygon", "coordinates": [[[-62.5206324538, -11.2785452757], [-62.2206324538, -11.2785452757], [-62.2206324538, -10.9785452757], [-62.5206324538, -10.9785452757], [-62.5206324538, -11.2785452757]]]}}, {"type": "Feature", "properties": {"code_muni": 1101757, "name_muni": "Vale do Anari"}, "geometry": {"type": "Polygon", "coordinates": [[[-62.3268234421, -10.001392708100001], [-62.0268234421, -10.001392708100001], [-62.0268234421, -9.7013927081], [-62.3268234421, -9.7013927081], [-62.3268234421, -10.001392708100001]]]}}, {"type": "Feature", "properties": {"code_muni": 1101807, "name_muni": "Vale do Para\u00edso"}, "geometry": {"type": "Polygon", "coordinates": [[[-62.284390356799996, -10.5810526846], [-61.9843903568, -10.5810526846], [-61.9843903568, -10.281052684599999], [-62.284390356799996, -10.281052684599999], [-62.284390356799996, -10.5810526846]]]}}]}